SL-8 R/B,1 19257U 88053B   26086.32341824  .00000341  00000+0  11886-3 0  9991,2 19257  74.0454  79.9586 0021484 256.9296 203.9915 14.38927846979132,68.02884625901825,109.75816122347454,788787.6662203295
COSMOS 1975,1 19573U 88093A   26086.07679884  .00006776  00000+0  24404-3 0  9996,2 19573  82.5166 100.2245 0013351 107.6750 252.5949 15.28298826 22065,-44.78619097094339,77.6786590799441,506239.4939856734
SL-14 R/B,1 19574U 88093B   26086.31832838  .00000573  00000+0  63102-4 0  9992,2 19574  82.5337  25.4974 0020243 344.2366 130.2479 14.85676985  3633,30.396211912682286,-173.7270256376546,629099.8585642261
SL-16 R/B,1 19650U 88102B   26086.28108197 -.00000197  00000+0 -75467-4 0  9999,2 19650  70.9974 114.4835 0015043 335.1060  24.9336 14.16153909929383,6.723586381975275,-82.99164894524098,850489.7202038639
INTERCOSMOS 24,1 20261U 89080A   26086.27750508  .00000527  00000+0  15597-3 0  9995,2 20261  82.6011  92.9474 1186825 251.9595  94.8885 12.59580525669019,43.54979460314524,85.20102279461051,2226858.2101052734
SL-14 R/B,1 20262U 89080C   26086.23995668  .00000370  00000+0  10309-3 0  9992,2 20262  82.5958 161.9245 1230885 144.6538 224.2854 12.50510553662342,-53.680501125263454,-22.771988812340666,1366302.3877142814
DELTA 1 R/B,1 20323U 89089B   26086.27854850  .00000314  00000+0  86012-4 0  9993,2 20323  97.0693 290.9178 0070585  67.5179 293.3473 14.50676952898283,-37.39674554028796,91.07196642828323,781339.1952185067
ARIANE 40 R/B,1 20443U 90005H   26086.18624182  .00000267  00000+0  98283-4 0  9999,2 20443  98.3046 146.3233 0010908 147.1242 213.0628 14.39881720895328,-34.86238872919396,137.81503177870948,779841.7188332967
DELTA 2 R/B(1),1 20453U 90008B   26086.00692096  .00073879  00000+0  81030-3 0  9993,2 20453  35.6038  61.0117 0078404  60.4502 300.4023 15.58226849928839,23.161603543114555,79.39274298099579,342546.4146862391
COSMOS 2058,1 20465U 90010A   26086.25886123  .00004714  00000+0  27685-3 0  9990,2 20465  82.4684  30.1149 0007426 274.9238  85.1144 15.11475253944894,17.50126785827034,17.583482683291518,535375.813257823
SL-14 R/B,1 20466U 90010B   26086.15548851  .00000499  00000+0  57602-4 0  9992,2 20466  82.4994 250.9775 0018507 240.2295 119.7080 14.83584383931079,-2.3130200704403556,56.28803882089275,614293.4364277829
SL-14 R/B,1 20511U 90018B   26085.71750333  .00000440  00000+0  52147-4 0  9997,2 20511  82.5234 207.1767 0017088  40.1511 320.0962 14.82161327925105,-3.9059282403051117,-168.73377934752972,617135.5070657189
HST,1 20580U 90037B   26086.23243692  .00007403  00000+0  24183-3 0  9991,2 20580  28.4721 280.3064 0001625 332.1046  27.9462 15.29746183776003,-2.392870551378213,88.04866498259372,476121.13813303545
SL-16 R/B,1 20625U 90046B   26086.22877058  .00000274  00000+0  16604-3 0  9997,2 20625  70.9972 261.0750 0016288 276.5697  83.3571 14.15015194850875,67.84937027072455,-56.894573716946496,864645.1413174489
COSMOS 2084,1 20663U 90055A   26086.25482149  .00002479  00000+0  18400-3 0  9990,2 20663  62.7892 275.6640 0014301 195.3758 164.6910 15.05743328938960,30.658246461864643,-82.26243651887017,561319.8802851811
SL-6 R/B(2),1 20666U 90055D   26086.26154310  .00001804  00000+0  14466-3 0  9999,2 20666  62.7830 194.0903 0027670 351.0864   8.9740 15.03677154940834,-3.174466652848154,176.91897084524123,538775.8585851298
SL-8 R/B,1 20775U 90078B   26085.90898722  .00013317  00000+0  39440-3 0  9998,2 20775  82.9018 235.8155 0358755 315.9447  41.3686 14.89584455811861,71.18771157348871,-118.06395066626014,724230.3221908939
