[{"OBJECT_NAME":"SL-8 R/B","OBJECT_ID":"1988-053B","EPOCH":"2026-03-27T07:45:43.335936","MEAN_MOTION":14.38927846,"ECCENTRICITY":0.00214846,"INCLINATION":74.0454,"RA_OF_ASC_NODE":79.9586,"ARG_OF_PERICENTER":256.9296,"MEAN_ANOMALY":203.9915,"EPHEMERIS_TYPE":0,"CLASSIFICATION_TYPE":"U","NORAD_CAT_ID":19257,"ELEMENT_SET_NO":999,"REV_AT_EPOCH":97913,"BSTAR":0.00011886198,"MEAN_MOTION_DOT":3.41e-6,"MEAN_MOTION_DDOT":0},{"OBJECT_NAME":"COSMOS 1975","OBJECT_ID":"1988-093A","EPOCH":"2026-03-27T01:50:35.419776","MEAN_MOTION":15.28298826,"ECCENTRICITY":0.00133512,"INCLINATION":82.5166,"RA_OF_ASC_NODE":100.2245,"ARG_OF_PERICENTER":107.675,"MEAN_ANOMALY":252.5949,"EPHEMERIS_TYPE":0,"CLASSIFICATION_TYPE":"U","NORAD_CAT_ID":19573,"ELEMENT_SET_NO":999,"REV_AT_EPOCH":2206,"BSTAR":0.00024404338,"MEAN_MOTION_DOT":6.776e-5,"MEAN_MOTION_DDOT":0},{"OBJECT_NAME":"SL-14 R/B","OBJECT_ID":"1988-093B","EPOCH":"2026-03-27T07:38:23.572032","MEAN_MOTION":14.85676985,"ECCENTRICITY":0.00202438,"INCLINATION":82.5337,"RA_OF_ASC_NODE":25.4974,"ARG_OF_PERICENTER":344.2366,"MEAN_ANOMALY":130.2479,"EPHEMERIS_TYPE":0,"CLASSIFICATION_TYPE":"U","NORAD_CAT_ID":19574,"ELEMENT_SET_NO":999,"REV_AT_EPOCH":363,"BSTAR":6.3101533e-5,"MEAN_MOTION_DOT":5.73e-6,"MEAN_MOTION_DDOT":0},{"OBJECT_NAME":"SL-16 R/B","OBJECT_ID":"1988-102B","EPOCH":"2026-03-27T06:44:45.482208","MEAN_MOTION":14.16153909,"ECCENTRICITY":0.00150431,"INCLINATION":70.9974,"RA_OF_ASC_NODE":114.4835,"ARG_OF_PERICENTER":335.106,"MEAN_ANOMALY":24.9336,"EPHEMERIS_TYPE":0,"CLASSIFICATION_TYPE":"U","NORAD_CAT_ID":19650,"ELEMENT_SET_NO":999,"REV_AT_EPOCH":92938,"BSTAR":-7.5467184e-5,"MEAN_MOTION_DOT":-1.97e-6,"MEAN_MOTION_DDOT":0},{"OBJECT_NAME":"INTERCOSMOS 24","OBJECT_ID":"1989-080A","EPOCH":"2026-03-27T06:39:36.438912","MEAN_MOTION":12.59580525,"ECCENTRICITY":0.11868256,"INCLINATION":82.6011,"RA_OF_ASC_NODE":92.9474,"ARG_OF_PERICENTER":251.9595,"MEAN_ANOMALY":94.8885,"EPHEMERIS_TYPE":0,"CLASSIFICATION_TYPE":"U","NORAD_CAT_ID":20261,"ELEMENT_SET_NO":999,"REV_AT_EPOCH":66901,"BSTAR":0.00015597053,"MEAN_MOTION_DOT":5.27e-6,"MEAN_MOTION_DDOT":0},{"OBJECT_NAME":"SL-14 R/B","OBJECT_ID":"1989-080C","EPOCH":"2026-03-27T05:45:32.257152","MEAN_MOTION":12.50510553,"ECCENTRICITY":0.12308854,"INCLINATION":82.5958,"RA_OF_ASC_NODE":161.9245,"ARG_OF_PERICENTER":144.6538,"MEAN_ANOMALY":224.2854,"EPHEMERIS_TYPE":0,"CLASSIFICATION_TYPE":"U","NORAD_CAT_ID":20262,"ELEMENT_SET_NO":999,"REV_AT_EPOCH":66234,"BSTAR":0.00010309098,"MEAN_MOTION_DOT":3.7e-6,"MEAN_MOTION_DDOT":0},{"OBJECT_NAME":"DELTA 1 R/B","OBJECT_ID":"1989-089B","EPOCH":"2026-03-27T06:41:06.590400","MEAN_MOTION":14.50676952,"ECCENTRICITY":0.00705851,"INCLINATION":97.0693,"RA_OF_ASC_NODE":290.9178,"ARG_OF_PERICENTER":67.5179,"MEAN_ANOMALY":293.3473,"EPHEMERIS_TYPE":0,"CLASSIFICATION_TYPE":"U","NORAD_CAT_ID":20323,"ELEMENT_SET_NO":999,"REV_AT_EPOCH":89828,"BSTAR":8.6012163e-5,"MEAN_MOTION_DOT":3.14e-6,"MEAN_MOTION_DDOT":0},{"OBJECT_NAME":"ARIANE 40 R/B","OBJECT_ID":"1990-005H","EPOCH":"2026-03-27T04:28:11.293248","MEAN_MOTION":14.3988172,"ECCENTRICITY":0.0010908,"INCLINATION":98.3046,"RA_OF_ASC_NODE":146.3233,"ARG_OF_PERICENTER":147.1242,"MEAN_ANOMALY":213.0628,"EPHEMERIS_TYPE":0,"CLASSIFICATION_TYPE":"U","NORAD_CAT_ID":20443,"ELEMENT_SET_NO":999,"REV_AT_EPOCH":89532,"BSTAR":9.8282554e-5,"MEAN_MOTION_DOT":2.67e-6,"MEAN_MOTION_DDOT":0},{"OBJECT_NAME":"DELTA 2 R/B(1)","OBJECT_ID":"1990-008B","EPOCH":"2026-03-27T00:09:57.970944","MEAN_MOTION":15.58226849,"ECCENTRICITY":0.00784044,"INCLINATION":35.6038,"RA_OF_ASC_NODE":61.0117,"ARG_OF_PERICENTER":60.4502,"MEAN_ANOMALY":300.4023,"EPHEMERIS_TYPE":0,"CLASSIFICATION_TYPE":"U","NORAD_CAT_ID":20453,"ELEMENT_SET_NO":999,"REV_AT_EPOCH":92883,"BSTAR":0.00081030003,"MEAN_MOTION_DOT":0.00073879,"MEAN_MOTION_DDOT":0},{"OBJECT_NAME":"COSMOS 2058","OBJECT_ID":"1990-010A","EPOCH":"2026-03-27T06:12:45.610272","MEAN_MOTION":15.11475253,"ECCENTRICITY":0.00074269,"INCLINATION":82.4684,"RA_OF_ASC_NODE":30.1149,"ARG_OF_PERICENTER":274.9238,"MEAN_ANOMALY":85.1144,"EPHEMERIS_TYPE":0,"CLASSIFICATION_TYPE":"U","NORAD_CAT_ID":20465,"ELEMENT_SET_NO":999,"REV_AT_EPOCH":94489,"BSTAR":0.00027685339,"MEAN_MOTION_DOT":4.714e-5,"MEAN_MOTION_DDOT":0},{"OBJECT_NAME":"SL-14 R/B","OBJECT_ID":"1990-010B","EPOCH":"2026-03-27T03:43:54.207264","MEAN_MOTION":14.83584383,"ECCENTRICITY":0.00185076,"INCLINATION":82.4994,"RA_OF_ASC_NODE":250.9775,"ARG_OF_PERICENTER":240.2295,"MEAN_ANOMALY":119.708,"EPHEMERIS_TYPE":0,"CLASSIFICATION_TYPE":"U","NORAD_CAT_ID":20466,"ELEMENT_SET_NO":999,"REV_AT_EPOCH":93107,"BSTAR":5.7602408e-5,"MEAN_MOTION_DOT":4.99e-6,"MEAN_MOTION_DDOT":0},{"OBJECT_NAME":"SL-14 R/B","OBJECT_ID":"1990-018B","EPOCH":"2026-03-26T17:13:12.287712","MEAN_MOTION":14.82161327,"ECCENTRICITY":0.0017088,"INCLINATION":82.5234,"RA_OF_ASC_NODE":207.1767,"ARG_OF_PERICENTER":40.1511,"MEAN_ANOMALY":320.0962,"EPHEMERIS_TYPE":0,"CLASSIFICATION_TYPE":"U","NORAD_CAT_ID":20511,"ELEMENT_SET_NO":999,"REV_AT_EPOCH":92510,"BSTAR":5.2147456e-5,"MEAN_MOTION_DOT":4.4e-6,"MEAN_MOTION_DDOT":0},{"OBJECT_NAME":"HST","OBJECT_ID":"1990-037B","EPOCH":"2026-03-27T05:34:42.549888","MEAN_MOTION":15.29746183,"ECCENTRICITY":0.00016259,"INCLINATION":28.4721,"RA_OF_ASC_NODE":280.3064,"ARG_OF_PERICENTER":332.1046,"MEAN_ANOMALY":27.9462,"EPHEMERIS_TYPE":0,"CLASSIFICATION_TYPE":"U","NORAD_CAT_ID":20580,"ELEMENT_SET_NO":999,"REV_AT_EPOCH":77600,"BSTAR":0.00024182932,"MEAN_MOTION_DOT":7.403e-5,"MEAN_MOTION_DDOT":0},{"OBJECT_NAME":"SL-16 R/B","OBJECT_ID":"1990-046B","EPOCH":"2026-03-27T05:29:25.778112","MEAN_MOTION":14.15015194,"ECCENTRICITY":0.00162887,"INCLINATION":70.9972,"RA_OF_ASC_NODE":261.075,"ARG_OF_PERICENTER":276.5697,"MEAN_ANOMALY":83.3571,"EPHEMERIS_TYPE":0,"CLASSIFICATION_TYPE":"U","NORAD_CAT_ID":20625,"ELEMENT_SET_NO":999,"REV_AT_EPOCH":85087,"BSTAR":0.00016603824,"MEAN_MOTION_DOT":2.74e-6,"MEAN_MOTION_DDOT":0},{"OBJECT_NAME":"COSMOS 2084","OBJECT_ID":"1990-055A","EPOCH":"2026-03-27T06:06:56.576736","MEAN_MOTION":15.05743328,"ECCENTRICITY":0.00143017,"INCLINATION":62.7892,"RA_OF_ASC_NODE":275.664,"ARG_OF_PERICENTER":195.3758,"MEAN_ANOMALY":164.691,"EPHEMERIS_TYPE":0,"CLASSIFICATION_TYPE":"U","NORAD_CAT_ID":20663,"ELEMENT_SET_NO":999,"REV_AT_EPOCH":93896,"BSTAR":0.0001840011,"MEAN_MOTION_DOT":2.479e-5,"MEAN_MOTION_DDOT":0},{"OBJECT_NAME":"SL-6 R/B(2)","OBJECT_ID":"1990-055D","EPOCH":"2026-03-27T06:16:37.323840","MEAN_MOTION":15.03677154,"ECCENTRICITY":0.00276709,"INCLINATION":62.783,"RA_OF_ASC_NODE":194.0903,"ARG_OF_PERICENTER":351.0864,"MEAN_ANOMALY":8.974,"EPHEMERIS_TYPE":0,"CLASSIFICATION_TYPE":"U","NORAD_CAT_ID":20666,"ELEMENT_SET_NO":999,"REV_AT_EPOCH":94083,"BSTAR":0.00014466329,"MEAN_MOTION_DOT":1.804e-5,"MEAN_MOTION_DDOT":0},{"OBJECT_NAME":"SL-8 R/B","OBJECT_ID":"1990-078B","EPOCH":"2026-03-26T21:48:56.495808","MEAN_MOTION":14.89584455,"ECCENTRICITY":0.03587554,"INCLINATION":82.9018,"RA_OF_ASC_NODE":235.8155,"ARG_OF_PERICENTER":315.9447,"MEAN_ANOMALY":41.3686,"EPHEMERIS_TYPE":0,"CLASSIFICATION_TYPE":"U","NORAD_CAT_ID":20775,"ELEMENT_SET_NO":999,"REV_AT_EPOCH":81186,"BSTAR":0.00039440095,"MEAN_MOTION_DOT":0.00013317,"MEAN_MOTION_DDOT":0}]
